{
  "type": "FeatureCollection",
  "features": [
    {
      "type": "Feature",
      "properties": {
        "name": "North America: Canada, United States (with Alaska, Hawaii), Greenland"
      },
      "geometry": {
        "type": "Polygon",
        "coordinates": [
          [
            [-180, 18],
            [-52, 18],
            [-52, 84],
            [-180, 84],
            [-180, 18]
          ]
        ]
      }
    },
    {
      "type": "Feature",
      "properties": { "name": "Europe" },
      "geometry": {
        "type": "Polygon",
        "coordinates": [
          [
            [-32, 34],
            [45, 34],
            [45, 72],
            [-32, 72],
            [-32, 34]
          ]
        ]
      }
    }
  ]
}
